id,name,street,zip_code,city
DHL Paketshop 719,Kiosk Kumar,Vorgebirgstr. 108,50969,Köln
DHL Paketshop 449,PC-Profi,Bonner Wall 25,50677,Köln
Packstation 252,Zollstock Arkaden,Vorgebirgstr. 116,50969,Köln
Packstation 207,LIDL Markt,Bonner Wall 114-116,50677,Köln
Packstation 404,LIDL Markt,Bonner Wall 114-116,50677,Köln
Postfiliale 646,Lotto Familie Lee,Vorgebirgstr. 165,50969,Köln
Packstation 139,McDonald's,Koblenzer Str. 2-4,50968,Köln
DHL Paketshop 606,Kiosk Koca,Gottesweg 20,50969,Köln
DHL Paketshop 610,REWE Markt GmbH,Höninger Weg 185,50969,Köln
DHL Paketshop 692,Kiosk Sahin,Höninger Weg 243,50969,Köln
DHL Paketshop 635,Kiosk Zugweg,Zugweg 8,50677,Köln
DHL Paketshop 601,REWE Markt GmbH,Bonner Str. 211,50968,Köln
Postfiliale 511,Zigarren Günther,Merowingerstr. 21,50677,Köln
DHL Paketshop ,Fahrrad Reinen,Bonner Str. 244,50968,Köln
Postbank Filiale 539,N/A,Kartäuserwall 7-17,50678,Köln
Packstation 164,ESSO Tankstelle,Höninger Weg 12-14,50969,Köln
Packstation 230,Aldi Markt,Rhöndorfer Str. 2,50939,Köln
Packstation 264,"REWE Markt, rechts vom Eingan",Rhöndorfer Str. 19,50939,Köln
Postfiliale 702,,Zollstockgürtel 21,50969,Köln
Packstation 296,NETTO Markt,Rhöndorfer Str. 4,50939,Köln
Packstation 209,LIDL Markt,Rhöndorfer Str. 12,50939,Köln
Packstation 402,,Karlheinz-Steimel-Weg 19,50969,Köln
DHL Paketshop 496,Kiosk Südkurve,Severinstr. 50,50678,Köln
Packstation 195,"real Markt, Zugang zur Tiefga",Weißhausstr. 30,50939,Köln
Packstation 172,Aral Tankstelle,Zollstockgürtel 39,50969,Köln
DHL Paketshop 432,Copyshop Goltstein 68,Goltsteinstr. 68,50968,Köln
DHL Paketshop 409,REWE Markt GmbH,Severinstr. 93-95,50678,Köln
DHL Paketshop 663,1Euro Kiosk Sonbahar,Salierring 3,50677,Köln
Postbank Filiale 555,N/A,Bonner Str. 351,50968,Köln
DHL Paketshop 630,Kiosk Em Veedel,Severinstr. 97,50678,Köln
DHL Paketshop 487,toom Baumarkt GmbH,Neuer Weyerstraßerweg 2,50969,Köln
Packstation 120,"Ecke Dreikönigenstr., Grundsc",Zwirnerstr. 15-17,50678,Köln
Packstation 191,ALDI Markt,Neuer Weyerstraßerweg 3,50969,Köln
Packstation 287,24h-Bereich,Bonner Str. 351,50968,Köln
DHL Paketshop 608,REWE Markt GmbH,Bonner Str. 350,50968,Köln
Packstation 265,REWE Markt,Bonner Str. 350,50968,Köln
DHL Paketshop 831,Kiosk Husch &amp; Röhrig GbR,Markusstr. 53,50968,Köln
Postfiliale 460,Uni Market Kiosk,Luxemburger Str. 124-136,50939,Köln
DHL Paketshop 483,REWE Markt GmbH,Goltsteinstr. 91,50968,Köln
DHL Paketshop 703,Atelier Sam Änderungsschneiderei,Luxemburger Str. 182,50937,Köln
DHL Paketshop 406,Moody's Smartstore e.K.,Salierring 26a,50677,Köln
Packstation 169,,Goltsteinstr. 91,50968,Köln
Packstation 238,"app-gesteuerte Packstation, S",Brühler Str. 223,50968,Köln
Postfiliale 653,Bet and Lottery 161 UG,Severinstr. 161-163,50678,Köln
Packstation 119,"Bahnhof Süd, Zugang zu den Gl",Otto-Fischer-Str. 2,50674,Köln
Packstation 295,"REWE Markt, im Markt neben de",Salierring 47-53,50677,Köln
Postfiliale 693,Kiosk Bülbül,Luxemburger Str. 285c,50939,Köln
Packstation 274,REWE Markt,Luxemburger Str. 299,50939,Köln
DHL Paketshop 437,Sülzer Drugstore,Berrenrather Str. 161,50937,Köln
Packstation 202,neben Carsharing-Parkplätzen,Mengelbergstr. 2,50676,Köln
DHL Paketshop 468,REWE Markt GmbH,Luxemburger Str. 299,50939,Köln
DHL Paketshop 589,Aladin,Kyffhäuserstr. 21,50674,Köln
Postfiliale 763,Lotto Chug,Hohenstaufenring 2,50674,Köln
DHL Paketshop 463,XK Convenience GmbH,Severinstr. 214,50676,Köln
DHL Paketshop 453,Lotto Kiosk Schahwan Kalaf,Berrenrather Str. 236,50939,Köln
Packstation 118,Uni-Mensa,Zülpicher Str. 70,50937,Köln
Postfiliale 554,,Berrenrather Str. 315,50937,Köln
Postfiliale 495,"Schreibwaren, Post und mehr",Sülzgürtel 32,50937,Köln
Postfiliale 565,,Roonstr. 40-42,50674,Köln
Postfiliale ,Kölner Visa Zentrum,Bayardsgasse 3,50676,Köln
Postfiliale 566,OM Spielbox,Hohe Pforte 4-6,50676,Köln
DHL Paketshop 410,Kiosk Karaduman,Mathiasstr. 24-26,50676,Köln
DHL Paketshop 671,Kiosk am Park,Luxemburger Str. 427,50939,Köln
DHL Paketshop 476,Mauritius Getränke Markt,Mauritiussteinweg 86-88,50676,Köln
DHL Paketshop 668,Büdchen Casablanca,Sülzburgstr. 164,50937,Köln
DHL Paketshop 633,Tante Olga,Berrenrather Str. 406,50937,Köln
Packstation 117,"Universitäts-Mensa, Zahnklini",Robert-Koch-Str. 10,50931,Köln
Postfiliale 757,Lotto Stephan,Zülpicher Str. 296,50937,Köln
Packstation 146,ALDI Markt,Poller Kirchweg 76,51105,Köln
DHL Paketshop 418,PATTEVUGEL GmbH,Zülpicher Str. 314,50937,Köln
DHL Paketshop 447,Kiosk Singh,Am Rinkenpfuhl 55,50676,Köln
DHL Paketshop 651,Machado-Schumacher GmbH,Neumarkt 1,50667,Köln
DHL Paketshop 427,REWE Markt GmbH,Händelstr. 15,50674,Köln
DHL Paketshop 464,Yakups Kiosk,Gerolsteiner Str. 125,50937,Köln
Postfiliale 564,OM Schreibwaren,Händelstr. 37,50674,Köln
Packstation 171,,Ludwigstr. 1,50667,Köln
Packstation 165,ARAL Tankstelle,Am Verteilerkreis ,50968,Köln
DHL Paketshop 689,Kiosk Mila II,Zülpicher Str. 357,50935,Köln
DHL Paketshop 577,Sandy Lederatelier,Salomonsgasse 8-10,50667,Köln
DHL Paketshop 718,Kremers Nascherlebnis,Lintgasse 5,50667,Köln
Postfiliale 510,,Siegburger Str. 357,51105,Köln
DHL Paketshop 402,REWE Markt GmbH,Hohenzollernring 20,50672,Köln
DHL Paketshop 485,Kiosk am Rhein,Buttermarkt 40,50667,Köln
Postfiliale 766,Kiosk Absolut,Alte Wallgasse 2a,50672,Köln
Packstation 405,St. Hildegardis Anfahrt Lilie,Bachemer Str. 29-33,50931,Köln
Postbank Filiale 536,N/A,Breite Str. 6-26,50667,Köln
DHL Paketshop 634,Martin Kiosk,Tempelstr. 12,50679,Köln
DHL Paketshop 631,Kiosk Altstadt,Unter Taschenmacher 10,50667,Köln
Packstation 154,"Parkhaus, Zugang von Brabante",Maastrichter Str. 10,50672,Köln
Postfiliale 540,Postagentur OM,Deutzer Freiheit 61,50679,Köln
Packstation 141,Star Tankstelle,Siegburger Str. 406,51105,Köln
DHL Paketshop 673,BacKiosk Tasdemir,Hohenzollernring 57,50672,Köln
Postbank Filiale 551,N/A,Geibelstr. 29-31,50931,Köln
Packstation 285,24h-Bereich,Geibelstr. 29-31,50931,Köln
Postfiliale 574,,Lindenthalgürtel 60,50935,Köln
DHL Paketshop 416,FITT Tours GmbH,Burgmauer 6,50667,Köln
Packstation 131,U-Bahn-Verteilerebene,Friesenplatz 1,50672,Köln
DHL Paketshop 827,Kiosk &amp; Trinkhalle Akcaoglu,Alarichstr. 56,50679,Köln
Postfiliale 499,E &amp; N Schreibwaren,Antwerpener Str. 18,50672,Köln
DHL Paketshop 648,Kiosk 16,Siegesstr. 16,50679,Köln
DHL Paketshop 682,REWE Hüseyin Bilkay OHG,Hohenzollernring 79-83,50672,Köln
Packstation 112,"Hauptbahnhof, Zugang U-Bahn",Trankgasse 11,50667,Köln
DHL Paketshop 471,Kiosk mal anders,Justinianstr. 2,50679,Köln
DHL Paketshop 529,ARAL Tankstelle Köln-Lindenthal,Aachener Str. 203,50931,Köln
DHL Paketshop 445,REWE Markt GmbH,Venloer Str. 23,50672,Köln
DHL Paketshop 451,Kiosk M.I.S.,Kaiser-Wilhelm-Ring 2-4,50672,Köln
Postbank Filiale 538,N/A,Gereonstr. 38,50670,Köln
Packstation 111,"Eingang Breslauer Platz, Pass",Trankgasse 11,50667,Köln
DHL Paketshop 674,REWE Buhrandt OHG,Venloer Str. 41,50672,Köln
Postfiliale 580,Staples,Rolshover Str. 384,51105,Köln
Packstation 127,"Bahnhof Deutz, Ausgang Messe,",Ottoplatz 7,50679,Köln
Packstation 128,"Ecke Reitweg, Studentenwohnhe",Deutz-Kalker Str. 114,50679,Köln
DHL Paketshop 417,Kiosk Khalil,Gremberger Str. 18,51105,Köln
Postfiliale 573,Stehcafé 43,Domstr. 43-45,50668,Köln
Packstation 137,Esso Tankstelle,Dürener Str. 287,50935,Köln
Paketbox ,,Dürener Str. 287,50935,Köln
Packstation 251,,Am Eifeltor 12,50997,Köln
DHL Paketshop 622,Action-Discounter,Eigelstein 57-59,50668,Köln
DHL Paketshop 401,Schreibwaren Schulz,Gremberger Str. 57,51105,Köln
Postfiliale 470,,Hauptstr. 57,50996,Köln
DHL Paketshop 452,SB-Tank Station Piccialli,Berrenrather Str. 574,50354,Hürth
Packstation 160,SB-Tankstelle,Berrenrather Str. 574,50354,Hürth
DHL Paketshop 733,Barmenia Versicherungen,Ringstr. 4,50996,Köln
DHL Paketshop 811,Kiosk Lukas,Hansaring 52,50670,Köln
DHL Paketshop 736,Handyzwerg,Ringstr. 6,50996,Köln
Packstation 188,LIDL Markt,An der Pulvermühle 2,51105,Köln
Packstation 108,"Ecke Innere Kanalstr., Teleko",Venloer Str. 156,50672,Köln
Packstation 130,Studierendendorf,Hahnenstr. 29,50354,Hürth
DHL Paketshop 429,Heizöl Lambertz,Usingerstr. 89-91,51105,Köln
Packstation 273,REWE Markt,Vogelsanger Str. 16,50823,Köln
DHL Paketshop 716,Foto Vision,Weidengasse 52,50668,Köln
DHL Paketshop 405,Theaterkasse,Hansaring 64,50670,Köln
DHL Paketshop 420,REWE Oliver Frank OHG,Weißdornweg 2,50997,Köln
DHL Paketshop 434,REWE Markt GmbH,Vogelsanger Str. 16,50823,Köln
Packstation 255,REWE Markt,Weißdornweg 2,50997,Köln
Packstation 159,Aral Tankstelle,Luxemburger Str. 58,50354,Hürth
Packstation 272,,Zum Komarhof 1,50354,Hürth
Packstation 400,,Werthmannstr. 1,50935,Köln
DHL Paketshop 650,Mobilfunk Cinar,Gereonswall 6,50668,Köln
DHL Paketshop 457,Kiosk Linden,Vogelsanger Str. 48,50823,Köln
DHL Paketshop 652,Kiosk Khider,Krefelder Str. 1,50670,Köln
DHL Paketshop 403,Lotto Tabak Presse Hönerbach,Eigelstein 145,50668,Köln
DHL Paketshop 494,Super Shop,Clever Str. 1,50668,Köln
Packstation 189,LIDL Markt,Gremberger Str. 132,51105,Köln
DHL Paketshop 436,Kiosk Stehcafe da Costa,Dürener Str. 346,50935,Köln
Packstation 290,,Venloer Str. 231b,50823,Köln
Postbank Filiale 478,N/A,Venloer Str. 231b,50823,Köln
Packstation 217,LIDL Markt,Luxemburger Str. 80,50354,Hürth
Packstation 104,"U-Bahn, Ausgang Turiner Str.",Ebertplatz 0,50668,Köln
DHL Paketshop 535,Reber Kiosk,Trimbornstr. 28,51105,Köln
Packstation 802,,Aachener Str. 300,50933,Köln
Postfiliale 559,Tabakwaren Chug,Rodenkirchener Str. 127,50997,Köln
Packstation 176,real Markt,Gremberger Str. 200,51105,Köln
Postfiliale 759,NB Tobaccostore GmbH,Thebäerstr. 9,50823,Köln
Postbank Filiale 537,N/A,Sudermanplatz 1a,50670,Köln
Packstation 288,"Postbank Finanzcenter, in der",Robertstr. 2,51105,Köln
Postbank Filiale 509,N/A,Robertstr. 2,51105,Köln
DHL Paketshop 435,U-Bahn Kiosk Kalk-Post,Kalker Hauptstr. ,51103,Köln
Packstation 110,"Postbank Finanzcenter, außen",Sudermanplatz 1a,50670,Köln
Packstation 133,"Postbank Finanzcenter, außen",Sudermanplatz 1a,50670,Köln
Packstation 182,Vorgarten Wohnhaus,Adlerstr. 9,50997,Köln
DHL Paketshop 498,Kiosk Ela,Graeffstr. 1,50823,Köln
Packstation 206,LIDL Markt,Ringstr. 48,50996,Köln
DHL Paketshop 442,Papa Afro Shop,Venloer Str. 252,50823,Köln
Postfiliale 528,Wilura Schreibwaren-Fachhandel,Bachstr. 63,50354,Hürth
Packstation 175,,Riehler Str. 12-14,50668,Köln
DHL Paketshop 661,Kult Kiosk 1,Venloer Str. 276,50823,Köln
DHL Paketshop 597,Kaktus-Jamei,Subbelrather Str. 119,50823,Köln
Packstation 145,Renneberg-Parkplatz,Bachstr. 49,50354,Hürth
Postfiliale 770,Presse Aussem,Neusser Str. 50,50670,Köln
DHL Paketshop 443,REWE Oliver Frank OHG,Reiherstr. 31,50997,Köln
DHL Paketshop 688,Erlebniskiosk,Bachstr. 43,50354,Hürth
DHL Paketshop 708,Kiosk im Rheinsternhaus,Mevissenstr. 16/6,50668,Köln
DHL Paketshop 683,REWE Markt GmbH,Venloer Str. 310,50823,Köln
Postfiliale 709,Post und Tabakshop im REWE-Markt,Venloer Str. 310,50823,Köln
Postfiliale 552,Post in Braunsfeld,Maarweg 11,50933,Köln
Packstation 234,app-gesteuerte Packstation Ne,Oskar-Jäger-Str. 52,50825,Köln
Packstation 183,LIDL Markt,Deutz-Mülheimer Str. 140,51063,Köln
Packstation 201,REWE Markt,Subbelrather Str. 168,50823,Köln
Packstation 199,Platzschaffen,Stolberger Str. 90a,50933,Köln
DHL Paketshop 458,Kiosk Paradis,Blumenthalstr. 91,50668,Köln
Packstation 153,"in der U-Bahnhaltestelle Venloer Str. / Gürtel, Verteilerebene (große Halle)",Venloer Str. ,50823,Köln
Packstation 197,ALDI Markt,Grüner Weg 2,50825,Köln
Postfiliale 820,,Liebigstr. 114,50823,Köln
Packstation 226,ALDI Markt,Wipperfürther Str. 35,51103,Köln
DHL Paketshop 639,Kiosk Ergin,Venloer Str. 383,50825,Köln
DHL Paketshop 627,Kemal's Kiosk,Liebigstr. 151,50823,Köln
Packstation 222,Lidl Markt,Hornstr. 88,50823,Köln
Packstation 106,Deutsche Post Gebäude,Ehrenfeldgürtel 125,50823,Köln
DHL Paketshop 604,Kiosk Braunsfeld,Aachener Str. 504-506,50933,Köln
DHL Paketshop 460,Bagdad Kiosk und Lebensmittel,Steprathstr. 16,51103,Köln
Packstation 143,Verteilerebene,Kalker Hauptstr. 247-273,51103,Köln
DHL Paketshop 758,Kiosk Ehrenfeld,Venloer Str. 358,50825,Köln
Packstation 232,ALDI Markt,Nettgesweg 1,50354,Hürth
DHL Paketshop 616,Kiosk Nagpal,Hartwichstr. 38,50733,Köln
Packstation 185,rechts neben Wohngebäude,Liebigstr. 250,50739,Köln
DHL Paketshop 422,Kiosk Budak,Subbelrather Str. 244,50825,Köln
Postfiliale 785,Kiosk 555,Jessestr. 27,50823,Köln
Packstation 173,"ARAL, Tankstelle, Shop Rückse",Kölner Str. 255,51149,Köln
DHL Paketshop 642,Kiosk Mohsani,Krankenhausstr. 111,50354,Hürth
DHL Paketshop 484,ARTKOM GmbH,Eupener Str. 1,50933,Köln
DHL Paketshop 503,Späti Nippes Kiosk,Christinastr. 1b,50733,Köln
Packstation 200,"REWE Markt, rechts vom Eingan",Widdersdorfer Str. 219,50825,Köln
DHL Paketshop 735,Servan Kiosk,Kaiserswerther Str. 1,50739,Köln
DHL Paketshop 669,Kiosk 60,Sechzigstr. 27,50733,Köln
Packstation 208,ALDI Markt,Max-Wallraf-Str. 6,50933,Köln
DHL Paketshop 593,Ensemble Phönix Bühnenspielgemein.,Platenstr. 32,50825,Köln
DHL Paketshop 591,REWE Markt GmbH,Subbelrather Str. 273-275,50825,Köln
Packstation 259,PENNY Markt,Ingeborg-Bachmann-Str. 1,50354,Hürth
DHL Paketshop 607,Mila's Kiosk,Siebachstr. 46,50733,Köln
Packstation 204,LIDL Markt,Leyendeckerstr. 2a,50825,Köln
Packstation 229,ALDI Markt,Osterather Str. 26,50739,Köln
DHL Paketshop 742,Easy's Kiosk,Neusser Str. 194,50733,Köln
DHL Paketshop 611,Lottoannahme Tseliopoulos,Merheimer Str. 89,50733,Köln
DHL Paketshop 428,Büro-Boutique,Venloer Str. 442,50825,Köln
Packstation 193,LIDL Markt,Kasernenstr. 2,51103,Köln
Packstation 277,"REWE Markt, im Markt",Neusser Str. 206,50733,Köln
Packstation 115,Postgebäude,Eupener Str. 80,50933,Köln
Packstation 149,ALDI Markt,Stollwerckstr. 6,51149,Köln
DHL Paketshop 678,Kiosk Cicek,Sürther Str. 158,50999,Köln
Packstation 289,,Wilhelmstr. 56-58,50733,Köln
DHL Paketshop 444,Subbelrather Eck,Subbelrather Str. 314,50825,Köln
Postbank Filiale 541,N/A,Wilhelmstr. 56-58,50733,Köln
DHL Paketshop 813,Zum Nachbar´s Eck,Helmholtzstr. 62,50825,Köln
Postfiliale 588,Foto Cipolla,Venloer Str. 500,50825,Köln
Postbank Filiale 508,N/A,Olpener Str. 9-13,51103,Köln
Packstation 129,Postbank Finanzcenter,Olpener Str. 9-13,51103,Köln
Postfiliale 537,Seyfried GbR,Ostheimer Str. 125,51107,Köln
Postfiliale 575,EDEKA Tarneja + Hein,Gilgaustr. 37,51149,Köln
DHL Paketshop 430,Veedels Kiosk,Lustheider Str. 31,51103,Köln
Packstation 205,LIDL Markt,Emil-Hoffmann-Str. 42,50996,Köln
DHL Paketshop 413,Kiosk Namaste,Fuldaer Str. 9,51103,Köln
Packstation 161,Aral Tankstelle,Kölnstr. 1,50999,Köln
Packstation 184,ALDI Markt,Am Feldrain 38,50999,Köln
Postfiliale 504,Gawdi Tabakwaren,Heidelberger Str. 31,51065,Köln
Packstation 299,ALDI Markt,Otto-Hahn-Str. 19,50997,Köln
Packstation 134,Esso Tankstelle,Rendsburger Platz 2,51065,Köln
Packstation 147,OBI,Frankfurter Str. 194-196,51065,Köln
Packstation 144,ARAL Tankstelle,Alter Deutzer Postweg 102,51149,Köln
Packstation 186,LIDL Markt,Kölner Str. 8,51149,Köln
Packstation 268,PENNY Markt,Sürther Hauptstr. 161,50999,Köln
DHL Paketshop 408,Büroservice Dönmez,Buchheimer Weg 38,51107,Köln
Postfiliale 795,Lotto Post Agentur Schiffer,Auf der Ruhr 34,50999,Köln
Postfiliale 569,,Sürther Hauptstr. 61-69,50999,Köln
DHL Paketshop 439,BE-DO UG,Zehnthofstr. 76,51107,Köln
DHL Paketshop 455,Kiosk Bayanay,Deutz-Mülheimer Str. 203,51063,Köln
